IRIDIUM 57 [-]          
1 25273U 98019B   23229.78363211  .00000366  00000+0  12184-3 0  9998
2 25273  86.3916  65.5590 0002109  88.6956 271.4482 14.34871143328971
IRIDIUM 63 [-]          
1 25286U 98021B   23228.45363777  .00000461  00000+0  15379-3 0  9990
2 25286  86.4027   3.0498 0001983  91.7040 268.4384 14.35376673327864
IRIDIUM 69 [-]          
1 25319U 98026A   23229.68891367  .00000640  00000+0  19897-3 0  9997
2 25319  86.4009  17.7883 0004300  81.0180 279.1505 14.39514881326945
IRIDIUM 71 [-]          
1 25320U 98026B   23229.68856999  .00000633  00000+0  19529-3 0  9995
2 25320  86.4006  12.6391 0004024 113.0591 247.1033 14.39865255327460
IRIDIUM 73 [-]          
1 25344U 98032C   23229.33130207  .00000676  00000+0  16944-3 0  9992
2 25344  86.4464 330.7462 0002937  92.6039 267.5502 14.49982596333741
IRIDIUM 82 [-]          
1 25467U 98051A   23229.40735751  .00007574  00000+0  46468-3 0  9990
2 25467  86.3907  68.8301 0148299 252.8128 105.6825 15.01135245322636
IRIDIUM 2 [-]           
1 25527U 98066A   23229.70080014  .00028223  00000+0  75279-3 0  9997
2 25527  85.5234 134.3179 0009321  70.4721 289.7536 15.37960004360121
